OBJECT_NAME,OBJECT_ID,EPOCH,MEAN_MOTION,ECCENTRICITY,INCLINATION,RA_OF_ASC_NODE,ARG_OF_PERICENTER,MEAN_ANOMALY,EPHEMERIS_TYPE,CLASSIFICATION_TYPE,NORAD_CAT_ID,ELEMENT_SET_NO,REV_AT_EPOCH,BSTAR,MEAN_MOTION_DOT,MEAN_MOTION_DDOT
CUBEBUG-2 (LO-74),2013-066AA,2026-06-05T19:25:13.636704,14.93668030,.00594347,97.8908,105.7402,65.9901,294.7524,0,U,39440,999,67529,.51354385E-3,.556E-4,0
FUNCUBE-1 (AO-73),2013-066AE,2026-06-06T04:25:51.816864,15.09358417,.0034656,97.8278,128.4023,239.5624,120.2179,0,U,39444,999,67800,.57636E-3,.9267E-4,0
UWE-3,2013-066AG,2026-06-06T15:42:38.626272,14.96941234,.00490307,97.8693,113.6587,356.7161,3.3731,0,U,39446,999,67600,.43621535E-3,.5074E-4,0
UNISAT-6,2014-033C,2026-06-06T17:04:55.310592,14.88189807,.00464785,97.7873,310.6097,102.8244,257.8172,0,U,40012,999,64460,.45042139E-3,.4181E-4,0
DUCHIFAT-1,2014-033M,2026-06-06T15:41:32.123328,15.62532065,.00045265,98.0457,215.3530,133.6949,226.4683,0,U,40021,999,65410,.11800985E-2,.106168E-2,0
QB50P1,2014-033R,2026-06-06T14:30:31.874976,15.18097081,.00070281,98.0970,168.0100,258.4683,101.5761,0,U,40025,999,65142,.45859669E-3,.9284E-4,0
LILACSAT-2,2015-049K,2026-06-06T01:09:29.212992,15.51071560,.00053222,97.4656,193.4688,299.3702,60.7018,0,U,40908,999,59402,.3922929E-3,.22779E-3,0
FOX-1A (AO-85),2015-058D,2026-06-06T14:53:26.022048,14.90916620,.01298912,64.7764,311.8208,60.7292,300.6731,0,U,40967,999,11199,.30157666E-3,.3329E-4,0
CAS-2T & KS-1Q,2016-066G,2026-06-06T15:26:38.203008,14.44659406,.03424109,98.3816,233.5001,161.3823,200.0263,0,U,41847,999,50327,.27751568E-3,.1927E-4,0
RADFXSAT (FOX-1B),2017-073E,2026-06-06T14:58:24.312000,15.12539966,.01511744,97.4716,25.0553,5.8791,354.4168,0,U,43017,999,46379,.50849039E-3,.11671E-3,0
DIWATA-2B,2018-084H,2026-06-06T21:35:42.051264,15.00404193,.0011925,98.1164,353.6626,204.0922,155.9744,0,U,43678,999,41467,.27008082E-3,.3333E-4,0
ES'HAIL 2,2018-090A,2026-06-06T23:50:17.028096,1.00273570,.00019229,0.0130,30.8502,80.0087,167.9158,0,U,43700,999,2757,0,.158E-5,0
FOX-1CLIFF (AO-95),2018-099N,2026-06-06T03:09:03.946752,15.26474352,.00091754,97.4387,217.4205,36.3927,323.7934,0,U,43770,999,41153,.62214936E-3,.16192E-3,0
ITASAT,2018-099AE,2026-06-06T22:37:37.422336,15.18928308,.00132032,97.4030,209.6599,35.5041,324.7070,0,U,43786,999,41135,.39461316E-3,.8194E-4,0
JY1SAT (JO-97),2018-099AX,2026-06-06T15:43:35.945760,15.33317250,.0004135,97.4134,220.4567,314.5022,45.5881,0,U,43803,999,41201,.63442715E-3,.20383E-3,0
UWE-4,2018-111E,2026-06-06T14:22:20.601984,15.45454015,.000755,97.5857,85.5068,22.5436,337.6143,0,U,43880,999,40914,.86289E-3,.41427E-3,0
TIANYAN 01,2019-093C,2026-06-06T22:44:50.136000,14.86500927,.00148323,97.7529,230.4290,117.5280,242.7445,0,U,44881,999,34989,.87362158E-4,.721E-5,0
RS-44 & BREEZE-KM R/B,2019-096E,2026-06-06T18:19:18.010560,12.79748548,.02177064,82.5218,346.6331,168.4833,192.1367,0,U,44909,999,30101,-.3238499E-5,.11E-6,0
SALSAT,2020-068K,2026-06-06T17:52:38.014752,15.29647918,.00090499,97.8851,160.1753,349.8452,10.2602,0,U,46495,999,31376,.35497906E-3,.10129E-3,0
XW-3 (CAS-9),2021-131B,2026-06-06T23:43:52.034016,14.41347290,.00051528,98.4975,250.4338,119.9020,240.2682,0,U,50466,999,23364,.11045183E-3,.313E-5,0
GREENCUBE (IO-117),2022-080E,2026-06-01T11:09:37.753056,6.42583280,.00088692,70.1435,303.7143,293.3663,66.6064,0,U,53109,999,9105,0,-.3E-7,0
UMKA 1 (RS40S),2023-091G,2026-06-06T21:28:58.781856,15.20699091,.00137222,97.5051,216.6327,150.0105,210.1919,0,U,57172,999,16244,.32949659E-3,.7192E-4,0
CUBESX-HSE 3 (RS42S),2023-091N,2026-06-06T21:54:50.603616,15.30954065,.00120857,97.5091,223.3724,126.3073,233.9286,0,U,57178,999,16285,.52832592E-3,.15772E-3,0
MONITOR-3 (RS58S),2023-091Q,2026-06-06T21:57:43.125408,15.27633468,.00129772,97.5084,221.2873,132.5913,227.6423,0,U,57180,999,16272,.47716424E-3,.12854E-3,0
MONITOR-4 (RS57S),2023-091S,2026-06-06T23:02:44.463840,15.27730245,.00129562,97.5077,221.3034,132.7408,227.4924,0,U,57182,999,16273,.42349435E-3,.11431E-3,0
MONITOR-2 (RS39S),2023-091U,2026-06-06T21:41:06.184320,15.18814094,.00122694,97.5074,216.2535,142.7911,217.4176,0,U,57184,999,16239,.29713552E-3,.6128E-4,0
SVYATOBOR 1 (RS60S),2023-091X,2026-06-06T21:34:39.933120,15.26439633,.00108384,97.5089,221.6605,125.2615,234.9639,0,U,57187,999,16274,.39164721E-3,.10151E-3,0
VIZARD-METEO (RS38S),2023-091Z,2026-06-06T22:03:00.520992,15.35697710,.00087522,97.5090,227.2010,108.1597,252.0600,0,U,57189,999,16311,.55679212E-3,.19296E-3,0
POLYTECH-UNIVERSE 3 (RS46S),2023-091AB,2026-06-06T22:22:13.440864,15.19013977,.00161659,97.5048,215.7865,159.9267,200.2607,0,U,57191,999,16239,.26812355E-3,.5562E-4,0
UTMN 2 (RS27S),2023-091AP,2026-06-06T22:28:17.209056,15.31798043,.00094638,97.5087,225.0173,114.2124,246.0107,0,U,57203,999,16297,.50472277E-3,.15452E-3,0
