CUBEBUG-2 (LO-74)       
1 39440U 13066AA  26156.80918561  .00005560  00000+0  51354-3 0  9990
2 39440  97.8908 105.7402 0059434  65.9901 294.7524 14.93668030675299
FUNCUBE-1 (AO-73)       
1 39444U 13066AE  26157.18462751  .00009267  00000+0  57636-3 0  9998
2 39444  97.8278 128.4023 0034656 239.5624 120.2179 15.09358417678008
UWE-3                   
1 39446U 13066AG  26157.65461373  .00005074  00000+0  43622-3 0  9993
2 39446  97.8693 113.6587 0049030 356.7161   3.3731 14.96941234676005
UNISAT-6                
1 40012U 14033C   26157.71175128  .00004181  00000+0  45042-3 0  9992
2 40012  97.7873 310.6097 0046478 102.8244 257.8172 14.88189807644602
DUCHIFAT-1              
1 40021U 14033M   26157.65384402  .00106168  00000+0  11801-2 0  9995
2 40021  98.0457 215.3530 0004526 133.6949 226.4683 15.62532065654105
QB50P1                  
1 40025U 14033R   26157.60453559  .00009284  00000+0  45860-3 0  9998
2 40025  98.0970 168.0100 0007028 258.4683 101.5761 15.18097081651424
LILACSAT-2              
1 40908U 15049K   26157.04825478  .00022779  00000+0  39229-3 0  9993
2 40908  97.4656 193.4688 0005322 299.3702  60.7018 15.51071560594026
FOX-1A (AO-85)          
1 40967U 15058D   26157.62044007  .00003329  00000+0  30158-3 0  9995
2 40967  64.7764 311.8208 0129891  60.7292 300.6731 14.90916620111990
CAS-2T & KS-1Q          
1 41847U 16066G   26157.64349772  .00001927  00000+0  27752-3 0  9990
2 41847  98.3816 233.5001 0342410 161.3823 200.0263 14.44659406503276
RADFXSAT (FOX-1B)       
1 43017U 17073E   26157.62389250  .00011671  00000+0  50849-3 0  9993
2 43017  97.4716  25.0553 0151174   5.8791 354.4168 15.12539966463797
DIWATA-2B               
1 43678U 18084H   26157.89979226  .00003333  00000+0  27008-3 0  9993
2 43678  98.1164 353.6626 0011925 204.0922 155.9744 15.00404193414671
ES'HAIL 2               
1 43700U 18090A   26157.99325264  .00000158  00000+0  00000+0 0  9995
2 43700   0.0130  30.8502 0001922  80.0087 167.9158  1.00273570 27578
FOX-1CLIFF (AO-95)      
1 43770U 18099N   26157.13129568  .00016192  00000+0  62215-3 0  9991
2 43770  97.4387 217.4205 0009175  36.3927 323.7934 15.26474352411538
ITASAT                  
1 43786U 18099AE  26157.94279424  .00008194  00000+0  39461-3 0  9994
2 43786  97.4030 209.6599 0013203  35.5041 324.7070 15.18928308411352
JY1SAT (JO-97)          
1 43803U 18099AX  26157.65527715  .00020383  00000+0  63443-3 0  9992
2 43803  97.4134 220.4567 0004135 314.5022  45.5881 15.33317250412013
UWE-4                   
1 43880U 18111E   26157.59884956  .00041427  00000+0  86289-3 0  9993
2 43880  97.5857  85.5068 0007550  22.5436 337.6143 15.45454015409146
TIANYAN 01              
1 44881U 19093C   26157.94780250  .00000721  00000+0  87362-4 0  9992
2 44881  97.7529 230.4290 0014832 117.5280 242.7445 14.86500927349891
RS-44 & BREEZE-KM R/B   
1 44909U 19096E   26157.76340290  .00000011  00000+0 -32385-5 0  9991
2 44909  82.5218 346.6331 0217706 168.4833 192.1367 12.79748548301015
SALSAT                  
1 46495U 20068K   26157.74488443  .00010129  00000+0  35498-3 0  9991
2 46495  97.8851 160.1753 0009049 349.8452  10.2602 15.29647918313761
XW-3 (CAS-9)            
1 50466U 21131B   26157.98879669  .00000313  00000+0  11045-3 0  9992
2 50466  98.4975 250.4338 0005152 119.9020 240.2682 14.41347290233642
GREENCUBE (IO-117)      
1 53109U 22080E   26152.46502029 -.00000003  00000+0  00000+0 0  9996
2 53109  70.1435 303.7143 0008869 293.3663  66.6064  6.42583280 91055
UMKA 1 (RS40S)          
1 57172U 23091G   26157.89512479  .00007192  00000+0  32950-3 0  9993
2 57172  97.5051 216.6327 0013722 150.0105 210.1919 15.20699091162447
CUBESX-HSE 3 (RS42S)    
1 57178U 23091N   26157.91308569  .00015772  00000+0  52833-3 0  9990
2 57178  97.5091 223.3724 0012085 126.3073 233.9286 15.30954065162855
MONITOR-3 (RS58S)       
1 57180U 23091Q   26157.91508247  .00012854  00000+0  47716-3 0  9990
2 57180  97.5084 221.2873 0012977 132.5913 227.6423 15.27633468162720
MONITOR-4 (RS57S)       
1 57182U 23091S   26157.96023685  .00011431  00000+0  42349-3 0  9992
2 57182  97.5077 221.3034 0012956 132.7408 227.4924 15.27730245162738
MONITOR-2 (RS39S)       
1 57184U 23091U   26157.90354380  .00006128  00000+0  29714-3 0  9995
2 57184  97.5074 216.2535 0012269 142.7911 217.4176 15.18814094162398
SVYATOBOR 1 (RS60S)     
1 57187U 23091X   26157.89907330  .00010151  00000+0  39165-3 0  9997
2 57187  97.5089 221.6605 0010838 125.2615 234.9639 15.26439633162740
VIZARD-METEO (RS38S)    
1 57189U 23091Z   26157.91875603  .00019296  00000+0  55679-3 0  9996
2 57189  97.5090 227.2010 0008752 108.1597 252.0600 15.35697710163110
POLYTECH-UNIVERSE 3 (R*)
1 57191U 23091AB  26157.93210001  .00005562  00000+0  26812-3 0  9994
2 57191  97.5048 215.7865 0016165 159.9267 200.2607 15.19013977162391
UTMN 2 (RS27S)          
1 57203U 23091AP  26157.93631029  .00015452  00000+0  50472-3 0  9993
2 57203  97.5087 225.0173 0009463 114.2124 246.0107 15.31798043162978
